[
  {
    "name": "ONEWEB-0590",
    "noradId": "54656",
    "line1": "1 54656U 22166Q   26187.22171071 -.00000094  00000+0 -25971-3 0  9999",
    "line2": "2 54656  87.9247 240.1850 0002407  88.9935 271.1474 13.21825118174044"
  },
  {
    "name": "ONEWEB-0591",
    "noradId": "54657",
    "line1": "1 54657U 22166R   26187.15792684  .00000067  00000+0  12968-3 0  9991",
    "line2": "2 54657  87.9239 240.2106 0002110  94.5565 265.5810 13.21827970174065"
  },
  {
    "name": "ONEWEB-0592",
    "noradId": "54658",
    "line1": "1 54658U 22166S   26187.16127679  .00000094  00000+0  19659-3 0  9993",
    "line2": "2 54658  87.9249 240.1899 0002058  96.5997 263.5371 13.21823979173948"
  },
  {
    "name": "ONEWEB-0593",
    "noradId": "54659",
    "line1": "1 54659U 22166T   26187.18316734  .00000113  00000+0  24324-3 0  9995",
    "line2": "2 54659  87.9239 240.1960 0001892  96.9744 263.1605 13.21825385174058"
  },
  {
    "name": "ONEWEB-0594",
    "noradId": "54660",
    "line1": "1 54660U 22166U   26187.20333795 -.00000109  00000+0 -29518-3 0  9993",
    "line2": "2 54660  87.9239 240.2080 0002124 101.4499 258.6873 13.21823967174074"
  },
  {
    "name": "ONEWEB-0595",
    "noradId": "54661",
    "line1": "1 54661U 22166V   26187.17980613  .00000068  00000+0  13225-3 0  9997",
    "line2": "2 54661  87.9248 240.1949 0002295 100.0107 260.1286 13.21825475174047"
  },
  {
    "name": "ONEWEB-0596",
    "noradId": "54662",
    "line1": "1 54662U 22166W   26187.15455176  .00000100  00000+0  21164-3 0  9995",
    "line2": "2 54662  87.9241 240.2102 0002156  97.3745 262.7634 13.21828580174040"
  },
  {
    "name": "ONEWEB-0597",
    "noradId": "54663",
    "line1": "1 54663U 22166X   26187.13604974  .00000008  00000+0 -13066-4 0  9997",
    "line2": "2 54663  87.9239 240.2167 0001959  94.7383 265.3975 13.21827946174040"
  },
  {
    "name": "ONEWEB-0600",
    "noradId": "54664",
    "line1": "1 54664U 22166Y   26187.19326712  .00000011  00000+0 -39264-5 0  9998",
    "line2": "2 54664  87.9239 240.1968 0001885 100.2259 259.9088 13.21825228174025"
  },
  {
    "name": "ONEWEB-0601",
    "noradId": "54665",
    "line1": "1 54665U 22166Z   26187.18484152  .00000061  00000+0  11594-3 0  9999",
    "line2": "2 54665  87.9239 240.2144 0001851  91.7081 268.4265 13.21824912174215"
  },
  {
    "name": "ONEWEB-0602",
    "noradId": "54666",
    "line1": "1 54666U 22166AA  26187.15034585  .00000032  00000+0  46251-4 0  9995",
    "line2": "2 54666  87.9238 240.2269 0001833 101.0006 259.1334 13.21827873174050"
  },
  {
    "name": "ONEWEB-0603",
    "noradId": "54667",
    "line1": "1 54667U 22166AB  26187.15623995  .00000072  00000+0  14279-3 0  9993",
    "line2": "2 54667  87.9249 240.1847 0001962  96.2050 263.9307 13.21828103173982"
  },
  {
    "name": "ONEWEB-0604",
    "noradId": "54668",
    "line1": "1 54668U 22166AC  26187.14445050  .00000024  00000+0  26243-4 0  9999",
    "line2": "2 54668  87.9249 240.2028 0002101  98.9977 261.1395 13.21823808173948"
  },
  {
    "name": "ONEWEB-0605",
    "noradId": "54669",
    "line1": "1 54669U 22166AD  26187.21343188 -.00000025  00000+0 -92008-4 0  9992",
    "line2": "2 54669  87.9241 240.2009 0002149  79.8366 280.3010 13.21827778174029"
  },
  {
    "name": "ONEWEB-0606",
    "noradId": "54670",
    "line1": "1 54670U 22166AE  26187.15960430  .00000094  00000+0  19558-3 0  9994",
    "line2": "2 54670  87.9240 240.2238 0002119 100.7963 259.3410 13.21825498174070"
  },
  {
    "name": "ONEWEB-0607",
    "noradId": "54671",
    "line1": "1 54671U 22166AF  26187.20167670 -.00000061  00000+0 -17902-3 0  9993",
    "line2": "2 54671  87.9247 240.1881 0001898  95.5865 264.5486 13.21825657174052"
  },
  {
    "name": "ONEWEB-0608",
    "noradId": "54672",
    "line1": "1 54672U 22166AG  26187.13267133 -.00000036  00000+0 -11929-3 0  9996",
    "line2": "2 54672  87.9250 240.1989 0001901  82.6564 277.4786 13.21823562174053"
  },
  {
    "name": "ONEWEB-0610",
    "noradId": "54673",
    "line1": "1 54673U 22166AH  26187.18821902  .00000084  00000+0  17183-3 0  9991",
    "line2": "2 54673  87.9238 240.2001 0001584  84.3584 275.7730 13.21825805173965"
  },
  {
    "name": "ONEWEB-0611",
    "noradId": "54674",
    "line1": "1 54674U 22166AJ  26187.18146859  .00000084  00000+0  17260-3 0  9999",
    "line2": "2 54674  87.9237 240.1973 0002206  99.4912 260.6471 13.21826210173951"
  },
  {
    "name": "ONEWEB-0612",
    "noradId": "54675",
    "line1": "1 54675U 22166AK  26187.19494540  .00000021  00000+0  19011-4 0  9992",
    "line2": "2 54675  87.9250 240.1923 0001965  93.2228 266.9130 13.21826288173940"
  },
  {
    "name": "ONEWEB-0615",
    "noradId": "54676",
    "line1": "1 54676U 22166AL  26187.32613653  .00000052  00000+0  94176-4 0  9995",
    "line2": "2 54676  87.9242 240.1791 0002184 104.0530 256.0847 13.21827503173975"
  },
  {
    "name": "ONEWEB-0655",
    "noradId": "54677",
    "line1": "1 54677U 22166AM  26187.15119047 -.00000038  00000+0 -12270-3 0  9995",
    "line2": "2 54677  87.9240 240.2146 0001817  99.4743 260.6596 13.21827264173947"
  },
  {
    "name": "ONEWEB-0659",
    "noradId": "54678",
    "line1": "1 54678U 22166AN  26187.16801107 -.00000239  00000+0 -60921-3 0  9991",
    "line2": "2 54678  87.9236 240.2111 0002163  96.3501 263.7879 13.21826575174031"
  },
  {
    "name": "ONEWEB-0685",
    "noradId": "54679",
    "line1": "1 54679U 22166AP  26187.16780049  .00000076  00000+0  15347-3 0  9992",
    "line2": "2 54679  87.9236 240.2029 0001818  88.4665 271.6677 13.21848410173922"
  },
  {
    "name": "ONEWEB-0712",
    "noradId": "54680",
    "line1": "1 54680U 22166AQ  26187.13525122 -.00000073  00000+0 -22385-3 0  9999",
    "line2": "2 54680  87.9085 225.0117 0001674 103.8258 256.3059 13.16595414174556"
  },
  {
    "name": "ONEWEB-0714",
    "noradId": "54681",
    "line1": "1 54681U 22166AR  26187.17307880  .00000111  00000+0  23759-3 0  9990",
    "line2": "2 54681  87.9239 240.1999 0001929 104.1134 256.0215 13.21826124174040"
  },
  {
    "name": "ONEWEB-0532",
    "noradId": "55140",
    "line1": "1 55140U 23004A   26187.47216152  .00000059  00000+0  11972-3 0  9992",
    "line2": "2 55140  87.9134   2.0270 0002082  83.3169 276.8199 13.17647834170129"
  },
  {
    "name": "ONEWEB-0533",
    "noradId": "55141",
    "line1": "1 55141U 23004B   26187.44046215  .00000399  00000+0  10742-2 0  9991",
    "line2": "2 55141  87.8956 346.8413 0001660  90.4483 269.6836 13.12441447170583"
  },
  {
    "name": "ONEWEB-0541",
    "noradId": "55142",
    "line1": "1 55142U 23004C   26187.02759828 -.00000369  00000+0 -10783-2 0  9991",
    "line2": "2 55142  87.8891  17.3077 0002034  89.1791 270.9570 13.11417026168415"
  },
  {
    "name": "ONEWEB-0543",
    "noradId": "55143",
    "line1": "1 55143U 23004D   26187.36062631  .00000061  00000+0  12272-3 0  9991",
    "line2": "2 55143  87.9179 331.6547 0001742 102.9954 257.1373 13.18686117172228"
  },
  {
    "name": "ONEWEB-0544",
    "noradId": "55144",
    "line1": "1 55144U 23004E   26187.35388190  .00000127  00000+0  28889-3 0  9996",
    "line2": "2 55144  87.9179 331.6558 0001963 102.0087 258.1266 13.18687067172221"
  },
  {
    "name": "ONEWEB-0560",
    "noradId": "55145",
    "line1": "1 55145U 23004F   26187.34712493 -.00000200  00000+0 -54074-3 0  9992",
    "line2": "2 55145  87.9178 331.6464 0001936 105.2663 254.8683 13.18685268172230"
  },
  {
    "name": "ONEWEB-0565",
    "noradId": "55146",
    "line1": "1 55146U 23004G   26187.34040024  .00000059  00000+0  11617-3 0  9993",
    "line2": "2 55146  87.9169 331.6740 0002291  98.1682 261.9710 13.18686757172227"
  },
  {
    "name": "ONEWEB-0567",
    "noradId": "55147",
    "line1": "1 55147U 23004H   26187.33365186  .00000057  00000+0  11286-3 0  9992",
    "line2": "2 55147  87.9178 331.6608 0002207 101.4043 258.7338 13.18687432172228"
  },
  {
    "name": "ONEWEB-0569",
    "noradId": "55148",
    "line1": "1 55148U 23004J   26187.35723204  .00000275  00000+0  71709-3 0  9992",
    "line2": "2 55148  87.8983 316.4052 0002450 118.5081 241.6295 13.13470836172694"
  },
  {
    "name": "ONEWEB-0570",
    "noradId": "55149",
    "line1": "1 55149U 23004K   26187.40109479 -.00000017  00000+0 -75684-4 0  9994",
    "line2": "2 55149  87.9179 331.6453 0002153  88.4780 271.6599 13.18686221172229"
  },
  {
    "name": "ONEWEB-0571",
    "noradId": "55150",
    "line1": "1 55150U 23004L   26187.39435623  .00000064  00000+0  13007-3 0  9997",
    "line2": "2 55150  87.9179 331.6462 0003012 109.5476 250.5981 13.18685952172235"
  },
  {
    "name": "ONEWEB-0572",
    "noradId": "55151",
    "line1": "1 55151U 23004M   26187.42745395  .00000084  00000+0  18221-3 0  9997",
    "line2": "2 55151  87.9138   2.0372 0002009  91.7032 268.4330 13.17651067170014"
  },
  {
    "name": "ONEWEB-0573",
    "noradId": "55152",
    "line1": "1 55152U 23004N   26187.38759641  .00000058  00000+0  11442-3 0  9991",
    "line2": "2 55152  87.9178 331.6493 0002711 102.8269 257.3166 13.18687433172226"
  },
  {
    "name": "ONEWEB-0588",
    "noradId": "55153",
    "line1": "1 55153U 23004P   26187.38086558  .00000080  00000+0  17004-3 0  9997",
    "line2": "2 55153  87.9178 331.6503 0002272  88.3496 271.7896 13.18686017172228"
  },
  {
    "name": "ONEWEB-0598",
    "noradId": "55154",
    "line1": "1 55154U 23004Q   26187.46334269 -.00000194  00000+0 -58304-3 0  9998",
    "line2": "2 55154  87.8879  17.2299 0002341 103.9283 256.2106 13.11414336168425"
  },
  {
    "name": "ONEWEB-0599",
    "noradId": "55155",
    "line1": "1 55155U 23004R   26187.46456543  .00000018  00000+0  13959-4 0  9990",
    "line2": "2 55155  87.9135   2.0284 0001785  97.9574 262.1760 13.17649707170023"
  },
  {
    "name": "ONEWEB-0614",
    "noradId": "55156",
    "line1": "1 55156U 23004S   26187.45825629  .00000048  00000+0  99596-4 0  9999",
    "line2": "2 55156  87.8875  17.2394 0001866  81.6473 278.4867 13.11414048168366"
  }
]